#dV2023 10 26 22  0  0.00000000    1682       CTS   FIT  GFZ
## 2285 424800.00000000    30.00000000 60243 0.9166666666667
+    1   L65  0  0  0  0  0  0  0  0  0  0  0  0  0  0  0  0
+          0  0  0  0  0  0  0  0  0  0  0  0  0  0  0  0  0
+          0  0  0  0  0  0  0  0  0  0  0  0  0  0  0  0  0
+          0  0  0  0  0  0  0  0  0  0  0  0  0  0  0  0  0
+          0  0  0  0  0  0  0  0  0  0  0  0  0  0  0  0  0
++         0  0  0  0  0  0  0  0  0  0  0  0  0  0  0  0  0
++         0  0  0  0  0  0  0  0  0  0  0  0  0  0  0  0  0
++         0  0  0  0  0  0  0  0  0  0  0  0  0  0  0  0  0
++         0  0  0  0  0  0  0  0  0  0  0  0  0  0  0  0  0
++         0  0  0  0  0  0  0  0  0  0  0  0  0  0  0  0  0
%c L  cc GPS ccc cccc cccc cccc cccc ccccc ccccc ccccc ccccc
%c cc cc ccc ccc cccc cccc cccc cccc ccccc ccccc ccccc ccccc
%f  0.0000000  0.000000000  0.00000000000  0.000000000000000
%f  0.0000000  0.000000000  0.00000000000  0.000000000000000
%i    0    0    0    0      0      0      0      0         0
%i    0    0    0    0      0      0      0      0         0
/* CCCCCCCCCCCCCCCCCCCCCCCCCCCCCCCCCCCCCCCCCCCCCCCCCCCCCCCCCCCCCCCCCCCCCCCCCCCCC
/* C                             GFZ RSO-ORBIT                                 C
/* C DOI: https://doi.org/10.5880/GFZ_ORBIT/RSO/L65_G_v03                      C
/* C                                                                           C
/* C DORIS        RMS: not applicable                                          C
/* C GNSS-E Code  RMS: not applicable                                          C
/* C GNSS-E Phase RMS: not applicable                                          C
/* C GNSS-G Code  RMS:  46.320 [cm]   Obs.acc.:     14182 Obs.eli.:       972  C
/* C GNSS-G Phase RMS:   4.472 [mm]   Obs.acc.:     14182 Obs.eli.:       972  C
/* C SLR          RMS:   1.958 [cm]   Obs.acc.:        69 Obs.eli.:         0  C
/* C                                                                           C
/* CCCCCCCCCCCCCCCCCCCCCCCCCCCCCCCCCCCCCCCCCCCCCCCCCCCCCCCCCCCCCCCCCCCCCCCCCCCCC
*  2023 10 27  2 15  0.00000000
PL65   -693.035672  -4491.304827  -5147.779725   9735.524473
VL65  -9961.459136 -56236.537280  50330.455326 999999.999999
*  2023 10 27  2 15 30.00000000
PL65   -722.898569  -4657.447180  -4993.963788   9736.012327
VL65  -9944.050877 -54514.841607  52204.080707 999999.999999
*  2023 10 27  2 16  0.00000000
PL65   -752.681326  -4818.333725  -4834.612810   9736.500097
VL65  -9907.992564 -52732.996627  54020.139328 999999.999999
*  2023 10 27  2 16 30.00000000
PL65   -782.327650  -4973.787030  -4669.902550   9736.987805
VL65  -9853.061225 -50893.023963  55776.602089 999999.999999
*  2023 10 27  2 17  0.00000000
PL65   -811.780626  -5123.635828  -4500.014760   9737.475375
VL65  -9779.063931 -48997.012496  57471.504002 999999.999999
*  2023 10 27  2 17 30.00000000
PL65   -840.982804  -5267.715217  -4325.136988   9737.963058
VL65  -9685.838297 -47047.115364  59102.946368 999999.999999
*  2023 10 27  2 18  0.00000000
PL65   -869.876295  -5405.866848  -4145.462375   9738.450746
VL65  -9573.252994 -45045.547829  60669.098481 999999.999999
*  2023 10 27  2 18 30.00000000
PL65   -898.402862  -5537.939107  -3961.189450   9738.938471
VL65  -9441.208139 -42994.585366  62168.199939 999999.999999
*  2023 10 27  2 19  0.00000000
PL65   -926.504015  -5663.787297  -3772.521916   9739.426152
VL65  -9289.635548 -40896.561191  63598.563221 999999.999999
*  2023 10 27  2 19 30.00000000
PL65   -954.121110  -5783.273799  -3579.668424   9739.913832
VL65  -9118.499023 -38753.863175  64958.576011 999999.999999
*  2023 10 27  2 20  0.00000000
PL65   -981.195441  -5896.268240  -3382.842348   9740.401546
VL65  -8927.794839 -36568.930774  66246.702645 999999.999999
*  2023 10 27  2 20 30.00000000
PL65  -1007.668340  -6002.647636  -3182.261554   9740.889266
VL65  -8717.552235 -34344.252862  67461.485427 999999.999999
*  2023 10 27  2 21  0.00000000
PL65  -1033.481277  -6102.296546  -2978.148160   9741.376990
VL65  -8487.833682 -32082.365823  68601.546705 999999.999999
*  2023 10 27  2 21 30.00000000
PL65  -1058.575960  -6195.107202  -2770.728294   9741.864764
VL65  -8238.735048 -29785.851148  69665.591554 999999.999999
*  2023 10 27  2 22  0.00000000
PL65  -1082.894435  -6280.979647  -2560.231840   9742.352527
VL65  -7970.385648 -27457.331928  70652.410553 999999.999999
*  2023 10 27  2 22 30.00000000
PL65  -1106.379185  -6359.821849  -2346.892181   9742.840217
VL65  -7682.948014 -25099.468690  71560.881470 999999.999999
*  2023 10 27  2 23  0.00000000
PL65  -1128.973230  -6431.549809  -2130.945936   9743.327853
VL65  -7376.617649 -22714.955907  72389.970144 999999.999999
*  2023 10 27  2 23 30.00000000
PL65  -1150.620225  -6496.087659  -1912.632691   9743.815356
VL65  -7051.622941 -20306.519024  73138.731442 999999.999999
*  2023 10 27  2 24  0.00000000
PL65  -1171.264563  -6553.367752  -1692.194733   9744.303206
VL65  -6708.225290 -17876.911702  73806.310524 999999.999999
*  2023 10 27  2 24 30.00000000
PL65  -1190.851468  -6603.330737  -1469.876776   9744.791116
VL65  -6346.719177 -15428.912607  74391.944725 999999.999999
*  2023 10 27  2 25  0.00000000
PL65  -1209.327096  -6645.925634  -1245.925681   9745.279316
VL65  -5967.431775 -12965.321282  74894.964999 999999.999999
*  2023 10 27  2 25 30.00000000
PL65  -1226.638635  -6681.109888  -1020.590178 999999.999999
VL65  -5570.722389 -10488.954160  75314.796382 999999.999999
*  2023 10 27  2 26  0.00000000
PL65  -1242.734398  -6708.849413   -794.120576   9746.255318
VL65  -5156.982069  -8002.641269  75650.958171 999999.999999
*  2023 10 27  2 26 30.00000000
PL65  -1257.563918  -6729.118631   -566.768487   9746.742910
VL65  -4726.633313  -5509.223240  75903.064485 999999.999999
*  2023 10 27  2 27  0.00000000
PL65  -1271.078042  -6741.900495   -338.786538   9747.230406
VL65  -4280.129757  -3011.547973  76070.825053 999999.999999
*  2023 10 27  2 27 30.00000000
PL65  -1283.229025  -6747.186513   -110.428080   9747.717984
VL65  -3817.955821   -512.467033  76154.045774 999999.999999
*  2023 10 27  2 28  0.00000000
PL65  -1293.970621  -6744.976744    118.053096   9748.205756
VL65  -3340.626235   1985.168015  76152.629127 999999.999999
*  2023 10 27  2 28 30.00000000
PL65  -1303.258170  -6735.279799    346.403053   9748.693329
VL65  -2848.685337   4478.509330  76066.574313 999999.999999
*  2023 10 27  2 29  0.00000000
PL65  -1311.048694  -6718.112822    574.367996   9749.181193
VL65  -2342.706312   6964.716276  75895.977120 999999.999999
*  2023 10 27  2 29 30.00000000
PL65  -1317.300971  -6693.501466    801.694563   9749.668934
VL65  -1823.290476   9440.958728  75641.029861 999999.999999
*  2023 10 27  2 30  0.00000000
PL65  -1321.975627  -6661.479851   1028.130111   9750.156746
VL65  -1291.066507  11904.420540  75302.021371 999999.999999
*  2023 10 27  2 30 30.00000000
PL65  -1325.035216  -6622.090522   1253.423012   9750.644421
VL65   -746.689481  14352.303352  74879.336795 999999.999999
*  2023 10 27  2 31  0.00000000
PL65  -1326.444291  -6575.384388   1477.322933   9751.132196
VL65   -190.839882  16781.830181  74373.456814 999999.999999
*  2023 10 27  2 31 30.00000000
PL65  -1326.169487  -6521.420651   1699.581130   9751.620064
VL65    375.777241  19190.248621  73784.957130 999999.999999
*  2023 10 27  2 32  0.00000000
PL65  -1324.179588  -6460.266729   1919.950724   9752.107876
VL65    952.433341  21574.835011  73114.507981 999999.999999
*  2023 10 27  2 32 30.00000000
PL65  -1320.445598  -6391.998165   2138.186987   9752.595754
VL65   1538.376989  23932.898399  72362.871702 999999.999999
*  2023 10 27  2 33  0.00000000
PL65  -1314.940812  -6316.698520   2354.047617   9753.083635
VL65   2132.833876  26261.781440  71530.901246 999999.999999
*  2023 10 27  2 33 30.00000000
PL65  -1307.640877  -6234.459279   2567.293003   9753.571436
VL65   2735.008680  28558.862606  70619.542080 999999.999999
*  2023 10 27  2 34  0.00000000
PL65  -1298.523855  -6145.379728   2777.686515   9754.059135
VL65   3344.087940  30821.561950  69629.831350 999999.999999
*  2023 10 27  2 34 30.00000000
PL65  -1287.570274  -6049.566826   2984.994762   9754.546735
VL65   3959.241244  33047.345077  68562.894393 999999.999999
*  2023 10 27  2 35  0.00000000
PL65  -1274.763179  -5947.135062   3188.987863   9755.034064
VL65   4579.621878  35233.726070  67419.942536 999999.999999
*  2023 10 27  2 35 30.00000000
PL65  -1260.088178  -5838.206308   3389.439695   9755.521189
VL65   5204.367563  37378.270161  66202.270578 999999.999999
*  2023 10 27  2 36  0.00000000
PL65  -1243.533486  -5722.909661   3586.128141   9756.008682
VL65   5832.600656  39478.595368  64911.255228 999999.999999
*  2023 10 27  2 36 30.00000000
PL65  -1225.089978  -5601.381283   3778.835338   9756.496521
VL65   6463.429270  41532.375320  63548.354175 999999.999999
*  2023 10 27  2 37  0.00000000
PL65  -1204.751219  -5473.764225   3967.347914   9756.984589
VL65   7095.949348  43537.342054  62115.103783 999999.999999
*  2023 10 27  2 37 30.00000000
PL65  -1182.513504  -5340.208254   4151.457221   9757.473045
VL65   7729.246221  45491.287669  60613.116795 999999.999999
*  2023 10 27  2 38  0.00000000
PL65  -1158.375888  -5200.869668   4330.959563   9757.961237
VL65   8362.395811  47392.066148  59044.080926 999999.999999
*  2023 10 27  2 38 30.00000000
PL65  -1132.340209  -5055.911108   4505.656417   9758.449138
VL65   8994.465672  49237.595775  57409.757194 999999.999999
*  2023 10 27  2 39  0.00000000
PL65  -1104.411114  -4905.501359   4675.354649   9758.936867
VL65   9624.515919  51025.861473  55711.978069 999999.999999
*  2023 10 27  2 39 30.00000000
PL65  -1074.596079  -4749.815151   4839.866729   9759.424337
VL65  10251.600776  52754.917453  53952.645669 999999.999999
*  2023 10 27  2 40  0.00000000
PL65  -1042.905425  -4589.032941   4999.010936   9759.911384
VL65  10874.770091  54422.889828  52133.729005 999999.999999
EOF
